0 FENGYUN 1C DEB
1 36664U 99025DYJ 13290.21449583  .00000104  00000-0  64712-4 0  1453
2 36664 098.9163 278.2964 0174672 186.0070 173.9106 14.16326234212082
0 FENGYUN 1C DEB
1 36664U 99025DYJ 13295.23036038  .00000104  00000-0  64600-4 0  1464
2 36664 098.9166 283.3222 0174697 171.7032 188.7084 14.16327703212794
